STARLINK-36214          
1 67129U 25299AD  26058.83335648 -.01974637  00000+0 -60706-1 0  9991
2 67129  42.9999 225.1587 0001475 261.3214  76.8853 15.36591191  5839
STARLINK-36194          
1 67130U 25299AE  26058.52539066  .00063023  00000+0  15006-2 0  9998
2 67130  42.9975 227.0960 0001645 196.3147 163.7657 15.40757680 11558
ZIYUAN 3-04 (ZY 3-04)   
1 67131U 25300A   26058.91016278  .00005900  00000+0  26679-3 0  9999
2 67131  97.4814 137.5885 0005286 342.2888  17.8162 15.21298464 11229
KUIPER-00144            
1 67133U 25301A   26058.84299420  .00031526  00000+0  83704-3 0  9991
2 67133  51.8682 112.7357 0007474 357.8737   2.2217 15.37980743 12228
KUIPER-00164            
1 67134U 25301B   26058.83335648 -.01109340  00000+0 -54204-1 0  9998
2 67134  51.8807 113.4810 0004274  25.6313 266.4185 15.20452004  5883
KUIPER-00175            
1 67135U 25301C   26058.83335648 -.00580955  00000+0 -18045-1 0  9996
2 67135  51.8743 112.3047 0001265 341.3600 209.3730 15.35230357  5723
KUIPER-00179            
1 67136U 25301D   26058.83335648 -.00360914  00000+0 -15205-1 0  9993
2 67136  51.8783 112.9159 0002805  13.7894 242.4294 15.24453435  5572
KUIPER-00181            
1 67137U 25301E   26058.83335648 -.00064537  00000+0 -82051-2 0  9990
2 67137  51.9024 120.5352 0004672  38.5884 266.7846 14.81485984  5769
KUIPER-00183            
1 67138U 25301F   26058.44715059  .00031813  00000+0  87135-3 0  9994
2 67138  51.8608 115.2616 0014194  15.2502 344.8909 15.36941840 12327
KUIPER-00184            
1 67139U 25301G   26058.43439489  .00037913  00000+0  10371-2 0  9998
2 67139  51.8623 115.1877 0012065  12.5671 347.5614 15.36924614 12430
KUIPER-00186            
1 67140U 25301H   26058.83335648 -.00063085  00000+0 -81448-2 0  9990
2 67140  51.9009 121.7025 0000604 282.2699 325.8106 14.80843311  5238
KUIPER-00187            
1 67141U 25301J   26058.83335648 -.00032583  00000+0 -42719-2 0  9998
2 67141  51.9022 124.2073 0000471  72.3582 193.8570 14.79872936  4797
KUIPER-00188            
1 67142U 25301K   26058.86441423  .00035160  00000+0  94181-3 0  9994
2 67142  51.8687 112.8698 0010053  13.4571 346.6682 15.37632346 12224
KUIPER-00191            
1 67143U 25301L   26058.83335648 -.00049857  00000+0 -50231-2 0  9990
2 67143  51.8973 117.1146 0008816  16.8815 202.7376 14.90810740  4059
KUIPER-00196            
1 67144U 25301M   26058.43325629  .00035440  00000+0  92806-3 0  9991
2 67144  51.8708 114.5072 0003560 343.5175  16.5696 15.38367722 12162
KUIPER-00204            
1 67145U 25301N   26058.50832414  .00018109  00000+0  71001-3 0  9992
2 67145  51.8827 118.6282 0002691 308.7536  51.3206 15.25809768 12229
KUIPER-00210            
1 67146U 25301P   26058.83335648 -.00103017  00000+0 -97775-2 0  9996
2 67146  51.8930 117.1557 0012517  41.5787 292.2140 14.93545900  5710
KUIPER-00221            
1 67147U 25301Q   26058.88472029 -.00001827  00000+0 -21093-3 0  9994
2 67147  51.9026 123.9635 0000507 125.5003 234.6007 14.79893371 12071
KUIPER-00232            
1 67148U 25301R   26058.83335648 -.01057019  00000+0 -46144-1 0  9992
2 67148  51.8795 112.7958 0002111 126.6893 152.7865 15.24579870  4440
KUIPER-00241            
1 67149U 25301S   26058.83335648 -.00062120  00000+0 -77432-2 0  9996
2 67149  51.9021 119.2335 0001397 140.6081 257.5210 14.82296851  5611
KUIPER-00245            
1 67150U 25301T   26058.88204714  .00004568  00000+0  62783-3 0  9996
2 67150  51.9020 126.4958 0000446  79.1522 280.9491 14.79929326 12034
KUIPER-00246            
1 67151U 25301U   26058.83335648 -.01581622  00000+0 -95773-1 0  9990
2 67151  51.8832 113.7827 0005040  36.0019 160.6710 15.13595383  5173
KUIPER-00247            
1 67152U 25301V   26058.52848036  .00024274  00000+0  67895-3 0  9995
2 67152  51.8636 115.0623 0014172  22.2072 337.9525 15.36439605 12166
KUIPER-00248            
1 67153U 25301W   26058.43329846  .00032451  00000+0  88556-3 0  9992
2 67153  51.8677 115.2132 0011175   7.5994 352.5160 15.37084036 12329
KUIPER-00249            
1 67154U 25301X   26058.86379600  .00032650  00000+0  87403-3 0  9994
2 67154  51.8651 112.8379 0010338  10.3853 349.7346 15.37684559 12223
KUIPER-00250            
1 67155U 25301Y   26058.83335648 -.00050477  00000+0 -32467-2 0  9994
2 67155  51.8864 114.9167 0009205  21.2928 339.0127 15.07963614  5728
KUIPER-00251            
1 67156U 25301Z   26058.87887664  .00034486  00000+0  93651-3 0  9992
2 67156  51.8666 112.9399 0010644  12.8867 347.2390 15.37211095 12410
KUIPER-00252            
1 67157U 25301AA  26058.96067793  .00036196  00000+0  98948-3 0  9990
2 67157  51.8643 112.7305 0012422  15.4071 344.7292 15.36962292 12237
KUIPER-00261            
1 67158U 25301AB  26058.83335648 -.00026319  00000+0 -18079-2 0  9998
2 67158  51.8911 115.1681 0010593  18.9871 120.6990 15.05213009  5805
KUIPER-00265            
1 67159U 25301AC  26058.60922224  .00004529  00000+0  62281-3 0  9998
2 67159  51.9022 130.1870 0000627  54.9960 305.1061 14.79928280 11993
GSAT0233 (GALILEO 33)   
1 67160U 25302A   26044.50000000 -.00000008  00000+0  00000+0 0  9990
2 67160  54.3935 105.2952 0003011 207.0582 359.4109  1.70474578    20
GSAT0234 (GALILEO 34)   
1 67162U 25302C   26044.50000000 -.00000008  00000+0  00000+0 0  9992
2 67162  54.3967 105.2938 0003081 266.8423 119.7309  1.70475065   127
STARLINK-35755          
1 67163U 25303A   26058.80520486  .00020946  00000+0  76859-3 0  9998
2 67163  43.0006   6.5254 0001834 264.3241  95.7402 15.27576101 11226
STARLINK-36201          
1 67164U 25303B   26058.90899037  .00042734  00000+0  15536-2 0  9994
2 67164  43.0024   5.5830 0001611 253.2436 106.8239 15.27577525 11247
STARLINK-36186          
1 67165U 25303C   26058.25897890  .00025800  00000+0  94401-3 0  9992
2 67165  43.0019   9.3045 0001520 281.1730  78.8951 15.27571759 11149
STARLINK-36174          
1 67166U 25303D   26058.86030912  .00040278  00000+0  14645-2 0  9991
2 67166  42.9998   6.0800 0001319 260.7331  99.3371 15.27596973 11232
STARLINK-36198          
1 67167U 25303E   26058.90014249  .00035337  00000+0  12872-2 0  9992
2 67167  43.0038   6.3782 0000932 254.2266 105.8483 15.27586622 11234
STARLINK-35903          
1 67168U 25303F   26058.79234668 -.00012512  00000+0 -44556-3 0  9996
2 67168  43.0024   6.4267 0002205 240.5025 119.5607 15.27602142 11220
STARLINK-35839          
1 67169U 25303G   26058.90271190  .00023766  00000+0  87005-3 0  9998
2 67169  43.0038   6.3980 0001109 269.7565  90.3159 15.27593022 11236
STARLINK-35863          
1 67170U 25303H   26058.89243783  .00030806  00000+0  11239-2 0  9993
2 67170  43.0005   6.3160 0000082 271.9181  88.1661 15.27592463 11231
STARLINK-35771          
1 67171U 25303J   26058.89759271  .00035541  00000+0  12941-2 0  9990
2 67171  43.0030   6.3585 0001407 275.2609  84.8082 15.27598733 11231
STARLINK-35762          
1 67172U 25303K   26058.89500068  .00019184  00000+0  70487-3 0  9994
2 67172  43.0007   6.3369 0001020 263.1703  96.9033 15.27579125 11232
STARLINK-36183          
1 67173U 25303L   26058.88729381  .00023512  00000+0  86108-3 0  9992
2 67173  42.9953   6.2758 0000345  72.6834 287.4055 15.27585232 11236
STARLINK-36210          
1 67174U 25303M   26058.88086568  .00030957  00000+0  11298-2 0  9994
2 67174  42.9986   6.2270 0001102 248.3603 111.7132 15.27579685 11230
STARLINK-35756          
1 67175U 25303N   26058.55136468  .00010397  00000+0  38669-3 0  9992
2 67175  42.9985   8.0532 0000669 263.9300  96.1475 15.27589688 11189
STARLINK-35785          
1 67176U 25303P   26058.87315635  .00009887  00000+0  36831-3 0  9994
2 67176  42.9964   6.1706 0000533 294.5715  65.5081 15.27579556 11231
STARLINK-35853          
1 67177U 25303Q   26058.55007792  .00036720  00000+0  13375-2 0  9995
2 67177  43.0000   8.0430 0000586 266.4511  93.6274 15.27574659 11189
STARLINK-35878          
1 67178U 25303R   26058.86929699  .00002968  00000+0  11734-3 0  9994
2 67178  42.9993   6.1390 0001478 267.9854  92.0829 15.27579018 11239
STARLINK-35793          
1 67179U 25303S   26058.93212873  .00025112  00000+0  91946-3 0  9991
2 67179  43.0002   5.7528 0001080 260.2337  99.8392 15.27562873 11244
STARLINK-35876          
1 67180U 25303T   26058.86544919  .00023715  00000+0  86842-3 0  9990
2 67180  42.9974   6.1117 0000763 282.5162  77.5604 15.27584448 11231
STARLINK-35766          
1 67181U 25303U   26058.92055096  .00025350  00000+0  92737-3 0  9998
2 67181  42.9991   5.6609 0001524 249.8793 110.1894 15.27586205 11242
STARLINK-35782          
1 67182U 25303V   26058.91027058  .00008106  00000+0  30385-3 0  9996
2 67182  43.0029   5.5849 0001762 245.6360 114.4308 15.27570874 11242
STARLINK-35719          
1 67183U 25303W   26058.85131164  .00029204  00000+0  10662-2 0  9991
2 67183  43.0031   6.0042 0001229 262.1435  97.9277 15.27591622 11235
STARLINK-35910          
1 67184U 25303X   26058.57948009  .00024041  00000+0  87976-3 0  9992
2 67184  43.0018   7.4016 0001571 259.3663 100.7012 15.27600681 11199
STARLINK-35859          
1 67185U 25303Y   26058.91155659  .00022799  00000+0  83535-3 0  9997
2 67185  43.0037   5.5955 0001607 243.5441 116.5246 15.27585100 11249
STARLINK-35857          
1 67186U 25303Z   26058.86159082  .00038152  00000+0  13879-2 0  9999
2 67186  42.9964   6.0804 0000597 258.2501 101.8284 15.27600485 11235
STARLINK-35880          
1 67187U 25303AA  26058.85388080  .00034153  00000+0  12443-2 0  9994
2 67187  43.0020   6.0244 0001464 269.7886  90.2798 15.27595921 11235
STARLINK-35675          
1 67188U 25303AB  26058.57835293  .00003679  00000+0  14323-3 0  9996
2 67188  43.0028   8.2603 0001588 259.6330 100.4343 15.27558080 11185
STARLINK-35889          
1 67189U 25303AC  26058.89885985  .00023817  00000+0  87179-3 0  9990
2 67189  42.9986   6.3654 0000589  10.0920 349.9943 15.27595625 11234
